BEIDOU G3               
1 36590U 10024A   17305.51747436 -.00000355  00000-0  00000-0 0  9997
2 36590   1.4467  30.4750 0006583 308.8675 358.5215  1.00275370 27198
BADR-5                  
1 36592U 10025A   17305.82271541  .00000145  00000-0  00000-0 0  9999
2 36592   0.0094 229.0157 0004796 333.3760 161.0959  1.00271439 21637
COMS 1                  
1 36744U 10032A   17305.94634663 -.00000343  00000-0  00000-0 0  9998
2 36744   0.0500 100.5814 0000830 112.7744 297.0032  1.00273413 19517
ARABSAT-5A              
1 36745U 10032B   17305.82271541  .00000154  00000-0  00000-0 0  9997
2 36745   0.0604  29.6219 0003090 191.6988 146.6677  1.00274403 27063
ECHOSTAR 15             
1 36792U 10034A   17305.82271642 -.00000281  00000-0  00000-0 0  9995
2 36792   0.0106  86.4354 0002596 155.9152  33.4552  1.00266419 26780
NILESAT 201             
1 36830U 10037A   17305.87688211 -.00000057  00000-0  00000-0 0  9991
2 36830   0.0479 166.4169 0004009  40.9969 142.6360  1.00272100 26783
RASCOM-QAF 1R           
1 36831U 10037B   17304.87967651  .00000019  00000-0  00000+0 0  9995
2 36831   0.0218 301.8504 0005575 298.2321 119.9013  1.00272333 26704
CHINASAT 6A (ZX 6A)     
1 37150U 10042A   17305.44355064 -.00000354  00000-0  00000-0 0  9993
2 37150   0.0235 168.0449 0001169  63.8377  93.7579  1.00271023 26319
QZS-1 (MICHIBIKI)       
1 37158U 10045A   17304.90882480 -.00000084  00000-0  00000+0 0  9990
2 37158  40.9401 157.3428 0748335 270.0841  77.7398  1.00289388 26127
XM-5                    
1 37185U 10053A   17305.86504573 -.00000204  00000-0  00000-0 0  9994
2 37185   0.0185 269.6676 0001521  97.6015 260.3055  1.00270841 25910
BSAT-3B                 
1 37207U 10056B   17305.94733927 -.00000350  00000-0  00000-0 0  9990
2 37207   0.0507 312.9392 0003778 317.4669 221.9639  1.00271004 20675
BEIDOU G4               
1 37210U 10057A   17305.74723376 -.00000110  00000-0  00000-0 0  9994
2 37210   0.9251  54.8061 0007518 179.8360 235.6725  1.00271639 25715
SKYTERRA 1              
1 37218U 10061A   17305.09103599 -.00000122  00000-0  00000-0 0  9997
2 37218   3.0587 332.3983 0002954 205.4480 154.1973  1.00271687 25627
ZHONGXING-20A           
1 37234U 10064A   17304.87202966 -.00000338  00000-0  00000+0 0  9999
2 37234   0.0165 272.9348 0002463  29.2359 181.9688  1.00274589 25445
HYLAS 1                 
1 37237U 10065A   17305.88660411 -.00000233  00000-0  00000-0 0  9993
2 37237   0.0400  27.4592 0001911 180.9320 118.6632  1.00273649 25402
INTELSAT 17 (IS-17)     
1 37238U 10065B   17305.90462632 -.00000002  00000-0  00000-0 0  9996
2 37238   0.0247 240.6757 0002804 335.7775 216.6142  1.00274875 21841
EUTELSAT KA-SAT 9A      
1 37258U 10069A   17304.86280488  .00000061  00000-0  00000-0 0  9997
2 37258   0.0369 273.1065 0002799 341.7839 105.1179  1.00269317 12467
HISPASAT 1E             
1 37264U 10070A   17305.85085306 -.00000215  00000-0  00000-0 0  9990
2 37264   0.0601  98.7144 0004783 101.7374 117.2298  1.00271048 25087
KOREASAT 6              
1 37265U 10070B   17305.88049786 -.00000362  00000-0  00000-0 0  9999
2 37265   0.0050 275.1941 0002324 323.9880 235.1508  1.00266876 25101
INTELSAT NEW DAWN       
1 37392U 11016A   17305.81785637  .00000156  00000-0  00000-0 0  9996
2 37392   0.0229 245.2113 0001590 351.4574 131.8742  1.00272562 23939
YAHSAT 1A               
1 37393U 11016B   17305.97096576  .00000101  00000-0  00000-0 0  9991
2 37393   0.0186 267.2268 0002578 323.7673 212.5001  1.00270774 10828
TELSTAR 14R             
1 37602U 11021A   17305.82271642 -.00000279  00000-0  00000-0 0  9990
2 37602   0.0397  52.1718 0002217 230.3035 352.0379  1.00272131 24272
GSAT-8                  
1 37605U 11022A   17305.91854861  .00000084  00000-0  00000-0 0  9997
2 37605   0.0638 271.6678 0008098 332.3456 183.1782  1.00273680 21637
ST-2                    
1 37606U 11022B   17305.79424712 -.00000211  00000-0  00000-0 0  9995
2 37606   0.0125 232.5034 0001786 352.3352 190.3615  1.00269391 23692
CHINASAT 10 (ZX 10)     
1 37677U 11026A   17305.94733926 -.00000352  00000-0  00000-0 0  9990
2 37677   0.0398 267.5221 0004158 285.9370 299.5636  1.00273046 23399
TIANLIAN 1-02           
1 37737U 11032A   17305.53421911  .00000033  00000-0  00000-0 0  9992
2 37737   2.8649  76.7186 0008613 171.3720 162.1677  1.00276635 23131
GSAT-12                 
1 37746U 11034A   17305.77856851 -.00000165  00000-0  00000-0 0  9992
2 37746   0.1227  94.5857 0004339  14.0083 295.9637  1.00272292 11901
SES-3                   
1 37748U 11035A   17305.61646538 -.00000101  00000-0  00000-0 0  9997
2 37748   0.0517  75.5729 0002367 133.8711 310.5995  1.00271345 23034
KAZSAT-2                
1 37749U 11035B   17305.79424712 -.00000198  00000-0  00000-0 0  9991
2 37749   0.0098 313.5162 0001216 309.0699 151.1377  1.00270115 21810
ASTRA 1N                
1 37775U 11041A   17305.79420917  .00000120  00000-0  00000-0 0  9994
2 37775   0.0547  38.2008 0000576 139.3376 168.8866  1.00272186 12955
BSAT-3C (JCSAT-110R)    
1 37776U 11041B   17305.94733927 -.00000350  00000-0  00000-0 0  9996
2 37776   0.0192 108.7568 0000941 178.1729 205.4892  1.00266632 18924
PAKSAT-1R               
1 37779U 11042A   17305.90222601  .00000154  00000-0  00000-0 0  9999
2 37779   0.0500  49.8643 0003471 172.0572 182.2616  1.00272301 22896
CHINASAT 1A (ZX 1A)     
1 37804U 11047A   17305.88080218 -.00000336  00000-0  00000-0 0  9999
2 37804   0.0864 107.9269 0003051 162.3242 218.2747  1.00270460 22505
COSMOS 2473             
1 37806U 11048A   17304.92516155 -.00000107  00000-0  00000-0 0  9996
2 37806   0.0485  84.1435 0003831 171.8676 103.9856  1.00271955 22454
SES-2                   
1 37809U 11049A   17305.84910380 -.00000195  00000-0  00000-0 0  9997
2 37809   0.0236  29.1480 0002232 182.4764  48.4087  1.00270853 22444
ARABSAT-5C              
1 37810U 11049B   17305.79420917  .00000124  00000-0  00000-0 0  9996
2 37810   0.0655  14.3257 0002870 204.2046 128.6576  1.00272425 22477
EUTELSAT 7 WEST A       
1 37816U 11051A   17304.90801240 -.00000060  00000-0  00000-0 0  9999
2 37816   0.0841  51.1910 0006381 162.6376 146.1697  1.00272395 22328
QUETZSAT 1              
1 37826U 11054A   17305.84910380 -.00000241  00000-0  00000-0 0  9994
2 37826   0.0094  17.9452 0002705 194.5896  57.4564  1.00269548 18336
INTELSAT 18 (IS-18)     
1 37834U 11056A   17305.73035394  .00000053  00000-0  00000-0 0  9996
2 37834   0.0129 275.3778 0002083 305.2386 263.5407  1.00270883 22277
EUTELSAT 16A            
1 37836U 11057A   17305.79420917  .00000104  00000-0  00000-0 0  9991
2 37836   0.0688   9.6406 0004540 220.1822 113.3585  1.00271928 14412
VIASAT-1                
1 37843U 11059A   17305.83041668 -.00000023  00000-0  00000-0 0  9999
2 37843   0.0188 266.9610 0002657 307.2939  10.9269  1.00271366 15758
ASIASAT 7               
1 37933U 11069A   17305.95554991 -.00000333  00000-0  00000-0 0  9995
2 37933   0.0211 113.4749 0001656  79.1049 298.3523  1.00269396 13280
LUCH 5A                 
1 37951U 11074B   17305.53393706 -.00000043  00000-0  00000-0 0  9998
2 37951   1.6197 168.3359 0002952  75.8810 155.9896  1.00270802 21605
NIGCOMSAT 1R            
1 38014U 11077A   17305.90132330  .00000145  00000-0  00000-0 0  9999
2 38014   0.0018 203.0379 0001089  14.4827 190.8223  1.00273338 21370
FENGYUN 2F              
1 38049U 12002A   17305.94483017 -.00000355  00000-0  00000-0 0  9995
2 38049   1.9899  78.2808 0003172 243.5815 171.6179  1.00279088 21310
SES-4                   
1 38087U 12007A   17305.88170931 -.00000167  00000-0  00000-0 0  9994
2 38087   0.0219 335.9293 0002478 249.3899 111.4694  1.00271952 20688
BEIDOU G5               
1 38091U 12008A   17305.98479168  .00000057  00000-0  00000-0 0  9992
2 38091   1.8917  57.9997 0005231 223.8111 172.8747  1.00277461 20909
INTELSAT 22 (IS-22)     
1 38098U 12011A   17305.68538394 -.00000059  00000-0  00000-0 0  9990
2 38098   0.0233 331.9134 0002497 251.4345 136.6723  1.00272606 20259
APSTAR 7                
1 38107U 12013A   17305.86507463 -.00000102  00000-0  00000-0 0  9995
2 38107   0.0115 305.2570 0002513 276.4839 207.5615  1.00272119 20595
YAHSAT 1B               
1 38245U 12016A   17305.75320139  .00000127  00000-0  00000-0 0  9998
2 38245   0.0229 258.4013 0001621 334.5779 127.0060  1.00269705 14043
JCSAT-13                
1 38331U 12023A   17305.54156041 -.00000356  00000-0  00000-0 0  9993
2 38331   0.0214 106.5658 0002937 133.2406 120.1646  1.00268907 19955
VINASAT-2               
1 38332U 12023B   17305.81837226 -.00000329  00000-0  00000-0 0  9995
2 38332   0.0189 285.7273 0002209 288.7033 253.3500  1.00270636 20035
NIMIQ 6                 
1 38342U 12026A   17305.14006401 -.00000173  00000-0  00000-0 0  9995
2 38342   0.0020 201.5239 0002842  17.7410 140.7145  1.00269452 18855
CHINASAT 2A (ZX 2A)     
1 38352U 12028A   17305.78799685 -.00000293  00000-0  00000-0 0  9994
2 38352   0.0135 295.1315 0004490  25.6495 102.4712  1.00271069 19795
INTELSAT 19 (IS-19)     
1 38356U 12030A   17305.42523727 -.00000056  00000-0  00000-0 0  9991
2 38356   0.0221  76.2827 0002819 140.7364 143.0012  1.00273150 19931
ECHOSTAR 17             
1 38551U 12035A   17305.18451530 -.00000075  00000-0  00000-0 0  9999
2 38551   0.0116 259.5862 0002137 320.1077 140.3299  1.00272142 19492
METEOSAT-10 (MSG-3)     
1 38552U 12035B   17304.88877641 -.00000008  00000-0  00000-0 0  9997
2 38552   0.8398   9.3334 0001589 226.9357 123.7543  1.00269087 19639
SES-5                   
1 38652U 12036A   17305.71941757  .00000034  00000-0  00000-0 0  9990
2 38652   0.0463 267.8483 0001941 317.4711  79.8760  1.00271193 12921
TIANLIAN 1-03           
1 38730U 12040A   17304.91597677  .00000072  00000-0  00000+0 0  9992
2 38730   0.1500 270.5207 0003860 277.3101 192.9079  1.00273339 19409
